O3B MPOWER F1           
1 54755U 22174A   24228.62276810 -.00000015  00000+0  00000+0 0  9997
2 54755   0.0580 346.8294 0006715 153.1138  64.3419  5.00113857 31807
